[{"OBJECT_NAME":"STARLINK-34030","OBJECT_ID":"2025-102J","EPOCH":"2026-03-09T12:34:44.374944","MEAN_MOTION":14.98340563,"ECCENTRICITY":0.00027985,"INCLINATION":70.0016,"RA_OF_ASC_NODE":115.0253,"ARG_OF_PERICENTER":258.7362,"MEAN_ANOMALY":101.3483,"EPHEMERIS_TYPE":0,"CLASSIFICATION_TYPE":"U","NORAD_CAT_ID":64030,"ELEMENT_SET_NO":999,"REV_AT_EPOCH":4593,"BSTAR":0.00033280714,"MEAN_MOTION_DOT":3.881e-5,"MEAN_MOTION_DDOT":0},{"OBJECT_NAME":"CZ-6A DEB","OBJECT_ID":"2024-140GW","EPOCH":"2026-03-09T13:40:41.444832","MEAN_MOTION":14.63521789,"ECCENTRICITY":0.016262,"INCLINATION":89.029,"RA_OF_ASC_NODE":283.5875,"ARG_OF_PERICENTER":212.7771,"MEAN_ANOMALY":146.3276,"EPHEMERIS_TYPE":0,"CLASSIFICATION_TYPE":"U","NORAD_CAT_ID":60819,"ELEMENT_SET_NO":999,"REV_AT_EPOCH":8379,"BSTAR":0.00016069,"MEAN_MOTION_DOT":1.03e-5,"MEAN_MOTION_DDOT":0}]
